[{"OBJECT_NAME":"TIANHUI 2-01A","OBJECT_ID":"2019-024A","EPOCH":"2026-03-09T12:59:11.452128","MEAN_MOTION":15.16798964,"ECCENTRICITY":0.0001542,"INCLINATION":97.4822,"RA_OF_ASC_NODE":73.7961,"ARG_OF_PERICENTER":95.9688,"MEAN_ANOMALY":264.172,"EPHEMERIS_TYPE":0,"CLASSIFICATION_TYPE":"U","NORAD_CAT_ID":44207,"ELEMENT_SET_NO":999,"REV_AT_EPOCH":8703,"BSTAR":0.00014721,"MEAN_MOTION_DOT":2.825e-5,"MEAN_MOTION_DDOT":0},{"OBJECT_NAME":"STARLINK-6263","OBJECT_ID":"2023-065AY","EPOCH":"2026-03-09T22:00:01.999584","MEAN_MOTION":15.14287006,"ECCENTRICITY":0.00010273,"INCLINATION":43.0011,"RA_OF_ASC_NODE":221.3286,"ARG_OF_PERICENTER":289.7985,"MEAN_ANOMALY":235.0267,"EPHEMERIS_TYPE":0,"CLASSIFICATION_TYPE":"U","NORAD_CAT_ID":56549,"ELEMENT_SET_NO":999,"REV_AT_EPOCH":572,"BSTAR":0.0067881777,"MEAN_MOTION_DOT":0.00128532,"MEAN_MOTION_DDOT":0}]
